{
  "type": "FeatureCollection",
  "features": [
    {
      "type": "Feature",
      "properties": {
        "norad_id": 37867,
        "name": "COSMOS 2476 (744)",
        "group": "glo-ops",
        "lat": -23.707493778099362,
        "lon": 67.2664210406597,
        "alt_km": 19142.924218673925,
        "timestamp": "2025-12-18T17:50:15.218234+00:00",
        "meta_object_name": "COSMOS 2476 (744)",
        "meta_object_id": "2011-064A",
        "meta_epoch": "2025-12-18T07:35:13.446240",
        "meta_mean_motion": 2.13103876,
        "meta_eccentricity": 0.00242895,
        "meta_inclination": 65.1659,
        "meta_ra_of_asc_node": 78.9826,
        "meta_arg_of_pericenter": 234.6288,
        "meta_mean_anomaly": 131.1641,
        "meta_ephemeris_type": 0,
        "meta_classification_type": "U",
        "meta_norad_cat_id": 37867,
        "meta_element_set_no": 999,
        "meta_rev_at_epoch": 10991,
        "meta_bstar": 0,
        "meta_mean_motion_dot": -4e-07,
        "meta_mean_motion_ddot": 0,
        "tle_line1": "1 37867U 11064A   25352.31612785 -.00000040  00000+0  00000+0 0  9996",
        "tle_line2": "2 37867  65.1659  78.9826 0024289 234.6288 131.1641  2.13103876109911"
      },
      "geometry": {
        "type": "Point",
        "coordinates": [
          67.2664210406597,
          -23.707493778099362
        ]
      }
    },
    {
      "type": "Feature",
      "properties": {
        "norad_id": 37868,
        "name": "COSMOS 2477 (745)",
        "group": "glo-ops",
        "lat": 23.308692274508957,
        "lon": -112.42889330121405,
        "alt_km": 19118.250259292232,
        "timestamp": "2025-12-18T17:50:15.218246+00:00",
        "meta_object_name": "COSMOS 2477 (745)",
        "meta_object_id": "2011-064B",
        "meta_epoch": "2025-12-17T02:26:26.820384",
        "meta_mean_motion": 2.13102893,
        "meta_eccentricity": 0.0021195,
        "meta_inclination": 65.1716,
        "meta_ra_of_asc_node": 79.1012,
        "meta_arg_of_pericenter": 234.7168,
        "meta_mean_anomaly": 100.3174,
        "meta_ephemeris_type": 0,
        "meta_classification_type": "U",
        "meta_norad_cat_id": 37868,
        "meta_element_set_no": 999,
        "meta_rev_at_epoch": 10987,
        "meta_bstar": 0,
        "meta_mean_motion_dot": -5e-07,
        "meta_mean_motion_ddot": 0,
        "tle_line1": "1 37868U 11064B   25351.10169931 -.00000050  00000+0  00000+0 0  9994",
        "tle_line2": "2 37868  65.1716  79.1012 0021195 234.7168 100.3174  2.13102893109879"
      },
      "geometry": {
        "type": "Point",
        "coordinates": [
          -112.42889330121405,
          23.308692274508957
        ]
      }
    },
    {
      "type": "Feature",
      "properties": {
        "norad_id": 37869,
        "name": "COSMOS 2475 (743)",
        "group": "glo-ops",
        "lat": 58.487630456920066,
        "lon": -149.82059860101077,
        "alt_km": 19174.02525275631,
        "timestamp": "2025-12-18T17:50:15.218257+00:00",
        "meta_object_name": "COSMOS 2475 (743)",
        "meta_object_id": "2011-064C",
        "meta_epoch": "2025-12-18T05:19:14.657088",
        "meta_mean_motion": 2.13101609,
        "meta_eccentricity": 0.0026433,
        "meta_inclination": 65.1789,
        "meta_ra_of_asc_node": 79.0834,
        "meta_arg_of_pericenter": 248.8457,
        "meta_mean_anomaly": 181.3342,
        "meta_ephemeris_type": 0,
        "meta_classification_type": "U",
        "meta_norad_cat_id": 37869,
        "meta_element_set_no": 999,
        "meta_rev_at_epoch": 10991,
        "meta_bstar": 0,
        "meta_mean_motion_dot": -4.1e-07,
        "meta_mean_motion_ddot": 0,
        "tle_line1": "1 37869U 11064C   25352.22169742 -.00000041  00000+0  00000+0 0  9999",
        "tle_line2": "2 37869  65.1789  79.0834 0026433 248.8457 181.3342  2.13101609109913"
      },
      "geometry": {
        "type": "Point",
        "coordinates": [
          -149.82059860101077,
          58.487630456920066
        ]
      }
    },
    {
      "type": "Feature",
      "properties": {
        "norad_id": 39155,
        "name": "COSMOS 2485 (747)",
        "group": "glo-ops",
        "lat": 19.789590416731542,
        "lon": 89.18277376643498,
        "alt_km": 19183.525652399894,
        "timestamp": "2025-12-18T17:50:15.218268+00:00",
        "meta_object_name": "COSMOS 2485 (747)",
        "meta_object_id": "2013-019A",
        "meta_epoch": "2025-12-18T05:53:18.557952",
        "meta_mean_motion": 2.13103159,
        "meta_eccentricity": 0.0024769,
        "meta_inclination": 65.3166,
        "meta_ra_of_asc_node": 79.6819,
        "meta_arg_of_pericenter": 229.9573,
        "meta_mean_anomaly": 129.8462,
        "meta_ephemeris_type": 0,
        "meta_classification_type": "U",
        "meta_norad_cat_id": 39155,
        "meta_element_set_no": 999,
        "meta_rev_at_epoch": 9842,
        "meta_bstar": 0,
        "meta_mean_motion_dot": -4e-07,
        "meta_mean_motion_ddot": 0,
        "tle_line1": "1 39155U 13019A   25352.24535368 -.00000040  00000+0  00000+0 0  9993",
        "tle_line2": "2 39155  65.3166  79.6819 0024769 229.9573 129.8462  2.13103159 98427"
      },
      "geometry": {
        "type": "Point",
        "coordinates": [
          89.18277376643498,
          19.789590416731542
        ]
      }
    },
    {
      "type": "Feature",
      "properties": {
        "norad_id": 39620,
        "name": "COSMOS 2492 (754)",
        "group": "glo-ops",
        "lat": 47.16961154203689,
        "lon": -10.348552875389446,
        "alt_km": 19131.51604798057,
        "timestamp": "2025-12-18T17:50:15.218280+00:00",
        "meta_object_name": "COSMOS 2492 (754)",
        "meta_object_id": "2014-012A",
        "meta_epoch": "2025-12-18T04:53:42.056736",
        "meta_mean_motion": 2.13103354,
        "meta_eccentricity": 0.0014217,
        "meta_inclination": 65.4043,
        "meta_ra_of_asc_node": 320.0846,
        "meta_arg_of_pericenter": 312.4931,
        "meta_mean_anomaly": 47.3782,
        "meta_ephemeris_type": 0,
        "meta_classification_type": "U",
        "meta_norad_cat_id": 39620,
        "meta_element_set_no": 999,
        "meta_rev_at_epoch": 9138,
        "meta_bstar": 0,
        "meta_mean_motion_dot": -6.4e-07,
        "meta_mean_motion_ddot": 0,
        "tle_line1": "1 39620U 14012A   25352.20395899 -.00000064  00000+0  00000+0 0  9999",
        "tle_line2": "2 39620  65.4043 320.0846 0014217 312.4931  47.3782  2.13103354 91389"
      },
      "geometry": {
        "type": "Point",
        "coordinates": [
          -10.348552875389446,
          47.16961154203689
        ]
      }
    },
    {
      "type": "Feature",
      "properties": {
        "norad_id": 40001,
        "name": "COSMOS 2500 (755)",
        "group": "glo-ops",
        "lat": -62.851691147644395,
        "lon": -103.7723780770242,
        "alt_km": 19126.62879888066,
        "timestamp": "2025-12-18T17:50:15.218291+00:00",
        "meta_object_name": "COSMOS 2500 (755)",
        "meta_object_id": "2014-032A",
        "meta_epoch": "2025-12-17T21:45:50.523264",
        "meta_mean_motion": 2.13106065,
        "meta_eccentricity": 0.00080575,
        "meta_inclination": 65.3403,
        "meta_ra_of_asc_node": 319.8565,
        "meta_arg_of_pericenter": 219.1485,
        "meta_mean_anomaly": 140.7851,
        "meta_ephemeris_type": 0,
        "meta_classification_type": "U",
        "meta_norad_cat_id": 40001,
        "meta_element_set_no": 999,
        "meta_rev_at_epoch": 8959,
        "meta_bstar": 0,
        "meta_mean_motion_dot": -6.5e-07,
        "meta_mean_motion_ddot": 0,
        "tle_line1": "1 40001U 14032A   25351.90683476 -.00000065  00000+0  00000+0 0  9994",
        "tle_line2": "2 40001  65.3403 319.8565 0008057 219.1485 140.7851  2.13106065 89596"
      },
      "geometry": {
        "type": "Point",
        "coordinates": [
          -103.7723780770242,
          -62.851691147644395
        ]
      }
    },
    {
      "type": "Feature",
      "properties": {
        "norad_id": 40315,
        "name": "COSMOS 2501 (702K)",
        "group": "glo-ops",
        "lat": 62.5047023407798,
        "lon": -90.78969310717872,
        "alt_km": 19150.521706838965,
        "timestamp": "2025-12-18T17:50:15.218302+00:00",
        "meta_object_name": "COSMOS 2501 (702K)",
        "meta_object_id": "2014-075A",
        "meta_epoch": "2025-12-14T09:54:07.365600",
        "meta_mean_motion": 2.13101427,
        "meta_eccentricity": 0.00201134,
        "meta_inclination": 63.6139,
        "meta_ra_of_asc_node": 196.7672,
        "meta_arg_of_pericenter": 204.2903,
        "meta_mean_anomaly": 155.6894,
        "meta_ephemeris_type": 0,
        "meta_classification_type": "U",
        "meta_norad_cat_id": 40315,
        "meta_element_set_no": 999,
        "meta_rev_at_epoch": 8591,
        "meta_bstar": 0,
        "meta_mean_motion_dot": 9.7e-07,
        "meta_mean_motion_ddot": 0,
        "tle_line1": "1 40315U 14075A   25348.41258525  .00000097  00000+0  00000+0 0  9998",
        "tle_line2": "2 40315  63.6139 196.7672 0020113 204.2903 155.6894  2.13101427 85910"
      },
      "geometry": {
        "type": "Point",
        "coordinates": [
          -90.78969310717872,
          62.5047023407798
        ]
      }
    }
  ]
}